{"fetchedAt":"2026-06-29T18:07:57.113Z","satellites":[{"id":"67588","name":"GPS BIII-9  (PRN 20)","constellationId":"gps","omm":{"OBJECT_NAME":"GPS BIII-9  (PRN 20)","OBJECT_ID":"2026-017A","EPOCH":"2026-06-28T03:58:34.663008","MEAN_MOTION":2.00570961,"ECCENTRICITY":0.00208945,"INCLINATION":55.0953,"RA_OF_ASC_NODE":88.3146,"ARG_OF_PERICENTER":258.1003,"MEAN_ANOMALY":101.6754,"EPHEMERIS_TYPE":0,"CLASSIFICATION_TYPE":"U","NORAD_CAT_ID":67588,"ELEMENT_SET_NO":999,"REV_AT_EPOCH":43183,"BSTAR":0,"MEAN_MOTION_DOT":-5.5e-7,"MEAN_MOTION_DDOT":0}},{"id":"68791","name":"GPS BIII-10 (PRN 13)","constellationId":"gps","omm":{"OBJECT_NAME":"GPS BIII-10 (PRN 13)","OBJECT_ID":"2026-087A","EPOCH":"2026-06-22T15:38:01.863744","MEAN_MOTION":2.00570839,"ECCENTRICITY":0.00206819,"INCLINATION":54.9627,"RA_OF_ASC_NODE":207.5713,"ARG_OF_PERICENTER":106.6591,"MEAN_ANOMALY":76.9843,"EPHEMERIS_TYPE":0,"CLASSIFICATION_TYPE":"U","NORAD_CAT_ID":68791,"ELEMENT_SET_NO":999,"REV_AT_EPOCH":94,"BSTAR":0,"MEAN_MOTION_DOT":5.8e-7,"MEAN_MOTION_DDOT":0}}]}